[Satellite]
VERSION=1.1
NAME=INTELSAT 8 (IS-8)
NICKNAME=INTELSAT 8 (IS-8)
TLE1=1 25522U 98065A   17186.19979750 -.00000132  00000-0  00000-0 0  9991
TLE2=2 25522   1.0527  87.5664 0295414 221.8199 315.6170  0.95186324 13696
